{
    "61224": {
        "satname": "KINEIS-3B",
        "tle": "1 61224U 24172E   24348.80214740  .00003117  00000-0  49426-3 0  9998\n2 61224  98.0212  74.6909 0002917  54.8389 305.3092 14.72884498 12369"
    },
    "61223": {
        "satname": "KINEIS-3A",
        "tle": "1 61223U 24172D   24348.75049611  .00003087  00000-0  49115-3 0  9995\n2 61223  98.0174  74.6079 0002024  75.6334 284.5098 14.72742744 11789"
    },
    "1778": {
        "satname": "A-1 (ASTERIX)",
        "tle": "1  1778U 65096A   24350.46666225  .00002076  00000-0  54914-3 0  9991\n2  1778  34.2623   8.6628 0743698 283.5372  68.3544 13.48883670890209"
    },
    "43632": {
        "satname": "AZERSPACE 2/INTELSAT 38",
        "tle": "1 43632U 18074A   24350.03305380  .00000146  00000-0  00000+0 0  9994\n2 43632   0.0013   3.7881 0002034 288.8557 208.5529  1.00270532 22930"
    },
    "39079": {
        "satname": "AZERSPACE 1",
        "tle": "1 39079U 13006B   24349.85097712  .00000143  00000-0  00000-0 0  9997\n2 39079   0.0165 342.3960 0001732 295.4383 158.5112  1.00269105 43291"
    },
    "43463": {
        "satname": "BANGABANDHUSAT-1",
        "tle": "1 43463U 18044A   24349.90751998 -.00000353  00000-0  00000-0 0  9999\n2 43463   0.0202  37.7471 0002575 228.2887 263.8334  1.00271364 24202"
    },
    "41238": {
        "satname": "BELINTERSAT 1",
        "tle": "1 41238U 16001A   24350.03435701  .00000116  00000-0  00000+0 0  9990\n2 41238   0.0277  57.4332 0002385 202.3250 248.2160  1.00275549 32722"
    },
    "39481": {
        "satname": "TUPAC KATARI",
        "tle": "1 39481U 13075A   24350.10764638 -.00000185  00000-0  00000+0 0  9994\n2 39481   0.0517 149.4872 0003374 129.9459 116.3758  1.00271520 40341"
    },
    "58339": {
        "satname": "PLATFORM-5",
        "tle": "1 58339U 23174CM  24350.16893828  .00082655  00000-0  16943-2 0  9995\n2 58339  97.4397  67.1362 0007196 275.9899  84.0529 15.45740513 61499"
    },
    "56183": {
        "satname": "SATELIOT_0",
        "tle": "1 56183U 23054F   24350.14456675  .00053038  00000-0  96008-3 0  9994\n2 56183  97.3378 246.8245 0001808 189.1110 171.0109 15.49491514 93892"
    },
    "12645": {
        "satname": "INTERCOSMOS 22 (BULGARIA 1300)",
        "tle": "1 12645U 81075A   24348.07814480  .00000263  00000-0  11838-3 0  9997\n2 12645  81.2181  33.1498 0062682 351.4971   8.5136 14.18798667241897"
    },
    "56222": {
        "satname": "DISCO-1",
        "tle": "1 56222U 23054AW  24350.18524813  .00241100  00000-0  15517-2 0  9996\n2 56222  97.3328 251.6029 0004913 129.4136 230.7565 15.75482098 94199"
    },
    "55044": {
        "satname": "STERNULA-1",
        "tle": "1 55044U 23001AM  24350.14740840  .00355036  00000-0  20350-2 0  9990\n2 55044  97.3917  56.7638 0005272 256.4748 103.5931 15.77820145108767"
    },
    "27846": {
        "satname": "AAU CUBESAT",
        "tle": "1 27846U 03031G   24349.72344303  .00000608  00000-0  28694-3 0  9998\n2 27846  98.6878 353.8531 0008636 322.1730  37.8840 14.23451720113503"
    },
    "27842": {
        "satname": "DTUSAT",
        "tle": "1 27842U 03031C   24349.73335361  .00000625  00000-0  29467-3 0  9997\n2 27842  98.6880 353.8494 0008657 322.1924  37.8646 14.23429120113646"
    },
    "25635": {
        "satname": "ORSTED",
        "tle": "1 25635U 99008B   24349.95483004  .00001242  00000-0  28874-3 0  9993\n2 25635  96.4475  12.9341 0134687 147.2891 213.6740 14.50621098362571"
    },
    "58497": {
        "satname": "MISRSAT-2",
        "tle": "1 58497U 23187B   24350.20514349  .00003144  00000-0  41501-3 0  9992\n2 58497  97.9744  64.9115 0012662 128.3855 231.8496 14.80709765 55729"
    },
    "55844": {
        "satname": "HORUS 2",
        "tle": "1 55844U 23032A   24350.45677857  .00013478  00000-0  57152-3 0  9995\n2 55844  97.4120  63.9160 0008994 178.8823 181.2435 15.23206582 97940"
    },
    "36830": {
        "satname": "NILESAT 201",
        "tle": "1 36830U 10037A   24349.80835155 -.00000048  00000-0  00000-0 0  9991\n2 36830   0.0493 147.5854 0005067 103.4706 116.8869  1.00270777 52851"
    },
    "31117": {
        "satname": "EGYPTSAT 1",
        "tle": "1 31117U 07012A   24350.10388482  .00002704  00000-0  38634-3 0  9991\n2 31117  97.9889 296.8252 0006598  77.3683 282.8265 14.77488411949168"
    },
    "26470": {
        "satname": "NILESAT 102",
        "tle": "1 26470U 00046B   24349.86384059 -.00000006  00000-0  00000+0 0  9990\n2 26470   8.0261  65.0082 0003825 150.5185 241.2714  0.98040914 88600"
    },
    "25311": {
        "satname": "NILESAT",
        "tle": "1 25311U 98024A   24348.48628205 -.00000155  00000-0  00000-0 0  9993\n2 25311   9.4390  56.2338 0025529 268.5354 106.7247  0.97395189 44985"
    },
    "60573": {
        "satname": "ION SCV-012",
        "tle": "1 60573U 24149DK  24349.64698130  .00002118  00000-0  20999-3 0  9994\n2 60573  97.7363  63.0870 0004855 107.6485 252.5265 14.92831611 17860"
    },
    "60520": {
        "satname": "IPERDRONE.0",
        "tle": "1 60520U 24149BE  24350.16623154  .00024030  00000-0  95561-3 0  9993\n2 60520  97.4309  64.3264 0007389  85.9682 274.2400 15.25257649 18304"
    },
    "10294": {
        "satname": "SIRIO",
        "tle": "1 10294U 77080A   24349.74689981 -.00000073  00000-0  00000-0 0  9993\n2 10294   8.4569 303.5452 0006554 156.1632 327.3885  1.00271470112413"
    },
    "43805": {
        "satname": "AL FARABI 2",
        "tle": "1 43805U 18099AZ  24349.73735619  .00024399  00000-0  10911-2 0  9991\n2 43805  97.4852  47.6532 0008922  31.9251 328.2524 15.21267147330183"
    },
    "37749": {
        "satname": "KAZSAT 2",
        "tle": "1 37749U 11035B   24349.93382773 -.00000188  00000-0  00000+0 0  9991\n2 37749   0.0325 233.5914 0001647  83.1327 190.0409  1.00270277 49069"
    },
    "29230": {
        "satname": "KAZSAT 1",
        "tle": "1 29230U 06022A   24349.83102073 -.00000039  00000-0  00000-0 0  9995\n2 29230  10.8880  40.2036 0006366 187.8707 176.9942  0.99234593 67192"
    },
    "60532": {
        "satname": "LEMU-NGE",
        "tle": "1 60532U 24149BS  24349.66199545  .00004647  00000-0  45256-3 0  9999\n2 60532  97.7395  63.1146 0002159  78.4874 281.6588 14.92982118 17869"
    },
    "56987": {
        "satname": "AII-DELTA",
        "tle": "1 56987U 23084BH  24350.45160789  .00222798  00000-0  18529-2 0  9993\n2 56987  97.5284 118.2625 0003183 350.4618   9.6582 15.69454548 84282"
    },
    "46492": {
        "satname": "LACUNASAT-3",
        "tle": "1 46492U 20068G   24349.79273876  .00190157  00000-0  17994-2 0  9997\n2 46492  97.8132 330.8089 0008226  57.7823 302.4233 15.66329402232730"
    },
    "62006": {
        "satname": "OPTUS-X",
        "tle": "1 62006U 24212A   24349.82544965 -.00000199  00000-0  00000-0 0  9990\n2 62006   0.0407 239.7334 0001581 355.6006 233.5463  1.00272328   256"
    },
    "60527": {
        "satname": "CUAVA-2",
        "tle": "1 60527U 24149BM  24349.64909687  .00007363  00000-0  32152-3 0  9996\n2 60527  97.4276  63.6003 0010147  82.0339 278.2048 15.22371542 18218"
    },
    "16275": {
        "satname": "OPTUS A2 (AUSSAT 2)",
        "tle": "1 16275U 85109C   24348.66928087  .00000024  00000-0  00000+0 0  9996\n2 16275  13.8018 344.1263 0004965 282.2273  72.7040  0.99949672132570"
    },
    "15993": {
        "satname": "OPTUS A1 (AUSSAT 1)",
        "tle": "1 15993U 85076B   24349.93208458  .00000051  00000-0  00000-0 0  9990\n2 15993  13.7636 342.8204 0001868 319.8145 182.8649  0.99755184114116"
    },
    "4321": {
        "satname": "OSCAR 5",
        "tle": "1  4321U 70008B   24349.07142028 -.00000011  00000-0  20225-3 0  9998\n2  4321 101.3556  12.5208 0027271 259.7433 126.3229 12.52176916509046"
    }
}